{
  "type": "FeatureCollection",
  "features": [
    {
      "type": "Feature",
      "properties": {
        "norad_id": 41890,
        "name": "CYGFM07",
        "group": "weather",
        "lat": 6.2053381261213225,
        "lon": -125.38385197621004,
        "alt_km": 409.8565059641169,
        "timestamp": "2025-12-06T07:31:39.887844+00:00",
        "meta_object_name": "CYGFM07",
        "meta_object_id": "2016-078G",
        "meta_epoch": "2025-12-05T07:36:34.249248",
        "meta_mean_motion": 15.49552751,
        "meta_eccentricity": 0.00090676,
        "meta_inclination": 34.9475,
        "meta_ra_of_asc_node": 70.1032,
        "meta_arg_of_pericenter": 148.1425,
        "meta_mean_anomaly": 211.9847,
        "meta_ephemeris_type": 0,
        "meta_classification_type": "U",
        "meta_norad_cat_id": 41890,
        "meta_element_set_no": 999,
        "meta_rev_at_epoch": 49880,
        "meta_bstar": 0.00060057967,
        "meta_mean_motion_dot": 0.00034329,
        "meta_mean_motion_ddot": 0,
        "tle_line1": "1 41890U 16078G   25339.31706307  .00034329  00000+0  60058-3 0  9995",
        "tle_line2": "2 41890  34.9475  70.1032 0009067 148.1425 211.9847 15.49552751498801"
      },
      "geometry": {
        "type": "Point",
        "coordinates": [
          -125.38385197621004,
          6.2053381261213225
        ]
      }
    },
    {
      "type": "Feature",
      "properties": {
        "norad_id": 41891,
        "name": "CYGFM03",
        "group": "weather",
        "lat": 3.3712235390383674,
        "lon": 70.32738930703596,
        "alt_km": 420.7952403626914,
        "timestamp": "2025-12-06T07:31:39.887854+00:00",
        "meta_object_name": "CYGFM03",
        "meta_object_id": "2016-078H",
        "meta_epoch": "2025-12-05T06:45:42.681600",
        "meta_mean_motion": 15.49453008,
        "meta_eccentricity": 0.00083751,
        "meta_inclination": 34.9433,
        "meta_ra_of_asc_node": 72.2485,
        "meta_arg_of_pericenter": 134.4975,
        "meta_mean_anomaly": 225.6432,
        "meta_ephemeris_type": 0,
        "meta_classification_type": "U",
        "meta_norad_cat_id": 41891,
        "meta_element_set_no": 999,
        "meta_rev_at_epoch": 49877,
        "meta_bstar": 0.00058155906,
        "meta_mean_motion_dot": 0.0003311,
        "meta_mean_motion_ddot": 0,
        "tle_line1": "1 41891U 16078H   25339.28174400  .00033110  00000+0  58156-3 0  9998",
        "tle_line2": "2 41891  34.9433  72.2485 0008375 134.4975 225.6432 15.49453008498773"
      },
      "geometry": {
        "type": "Point",
        "coordinates": [
          70.32738930703596,
          3.3712235390383674
        ]
      }
    },
    {
      "type": "Feature",
      "properties": {
        "norad_id": 43010,
        "name": "FENGYUN 3D",
        "group": "weather",
        "lat": -55.864248796469674,
        "lon": -39.971405724811056,
        "alt_km": 833.4938107540202,
        "timestamp": "2025-12-06T07:31:39.887865+00:00",
        "meta_object_name": "FENGYUN 3D",
        "meta_object_id": "2017-072A",
        "meta_epoch": "2025-12-05T06:25:24.579840",
        "meta_mean_motion": 14.19680503,
        "meta_eccentricity": 6.713e-05,
        "meta_inclination": 98.9883,
        "meta_ra_of_asc_node": 305.4664,
        "meta_arg_of_pericenter": 209.8252,
        "meta_mean_anomaly": 150.2885,
        "meta_ephemeris_type": 0,
        "meta_classification_type": "U",
        "meta_norad_cat_id": 43010,
        "meta_element_set_no": 999,
        "meta_rev_at_epoch": 41747,
        "meta_bstar": 0.00012140211,
        "meta_mean_motion_dot": 2.11e-06,
        "meta_mean_motion_ddot": 0,
        "tle_line1": "1 43010U 17072A   25339.26764560  .00000211  00000+0  12140-3 0  9997",
        "tle_line2": "2 43010  98.9883 305.4664 0000671 209.8252 150.2885 14.19680503417474"
      },
      "geometry": {
        "type": "Point",
        "coordinates": [
          -39.971405724811056,
          -55.864248796469674
        ]
      }
    },
    {
      "type": "Feature",
      "properties": {
        "norad_id": 43013,
        "name": "NOAA 20 (JPSS-1)",
        "group": "weather",
        "lat": 77.27142863910323,
        "lon": 139.7216324952107,
        "alt_km": 818.1712696751501,
        "timestamp": "2025-12-06T07:31:39.887875+00:00",
        "meta_object_name": "NOAA 20 (JPSS-1)",
        "meta_object_id": "2017-073A",
        "meta_epoch": "2025-12-05T07:22:43.662720",
        "meta_mean_motion": 14.19522657,
        "meta_eccentricity": 0.00020966,
        "meta_inclination": 98.7588,
        "meta_ra_of_asc_node": 275.6859,
        "meta_arg_of_pericenter": 97.7509,
        "meta_mean_anomaly": 262.3906,
        "meta_ephemeris_type": 0,
        "meta_classification_type": "U",
        "meta_norad_cat_id": 43013,
        "meta_element_set_no": 999,
        "meta_rev_at_epoch": 41696,
        "meta_bstar": 0.00010909733,
        "meta_mean_motion_dot": 1.86e-06,
        "meta_mean_motion_ddot": 0,
        "tle_line1": "1 43013U 17073A   25339.30744980  .00000186  00000+0  10910-3 0  9994",
        "tle_line2": "2 43013  98.7588 275.6859 0002096  97.7509 262.3906 14.19522657416960"
      },
      "geometry": {
        "type": "Point",
        "coordinates": [
          139.7216324952107,
          77.27142863910323
        ]
      }
    },
    {
      "type": "Feature",
      "properties": {
        "norad_id": 43226,
        "name": "GOES 17",
        "group": "weather",
        "lat": 0.09503687159854123,
        "lon": 98.75540299450438,
        "alt_km": 35801.061647057184,
        "timestamp": "2025-12-06T07:31:39.887888+00:00",
        "meta_object_name": "GOES 17",
        "meta_object_id": "2018-022A",
        "meta_epoch": "2025-12-05T03:45:38.745216",
        "meta_mean_motion": 1.00271075,
        "meta_eccentricity": 0.00035046,
        "meta_inclination": 0.439,
        "meta_ra_of_asc_node": 89.2834,
        "meta_arg_of_pericenter": 182.6561,
        "meta_mean_anomaly": 129.1913,
        "meta_ephemeris_type": 0,
        "meta_classification_type": "U",
        "meta_norad_cat_id": 43226,
        "meta_element_set_no": 999,
        "meta_rev_at_epoch": 2847,
        "meta_bstar": 0,
        "meta_mean_motion_dot": -1.7e-06,
        "meta_mean_motion_ddot": 0,
        "tle_line1": "1 43226U 18022A   25339.15669844 -.00000170  00000+0  00000+0 0  9992",
        "tle_line2": "2 43226   0.4390  89.2834 0003504 182.6561 129.1913  1.00271075 28470"
      },
      "geometry": {
        "type": "Point",
        "coordinates": [
          98.75540299450438,
          0.09503687159854123
        ]
      }
    },
    {
      "type": "Feature",
      "properties": {
        "norad_id": 43491,
        "name": "FENGYUN 2H",
        "group": "weather",
        "lat": -0.3003455716616991,
        "lon": -92.36822783340641,
        "alt_km": 35774.78711748163,
        "timestamp": "2025-12-06T07:31:39.887900+00:00",
        "meta_object_name": "FENGYUN 2H",
        "meta_object_id": "2018-050A",
        "meta_epoch": "2025-12-05T02:05:25.537632",
        "meta_mean_motion": 1.00271291,
        "meta_eccentricity": 0.0002934,
        "meta_inclination": 2.5298,
        "meta_ra_of_asc_node": 81.414,
        "meta_arg_of_pericenter": 163.8161,
        "meta_mean_anomaly": 299.6365,
        "meta_ephemeris_type": 0,
        "meta_classification_type": "U",
        "meta_norad_cat_id": 43491,
        "meta_element_set_no": 999,
        "meta_rev_at_epoch": 2749,
        "meta_bstar": 0,
        "meta_mean_motion_dot": -1.19e-06,
        "meta_mean_motion_ddot": 0,
        "tle_line1": "1 43491U 18050A   25339.08710113 -.00000119  00000+0  00000+0 0  9998",
        "tle_line2": "2 43491   2.5298  81.4140 0002934 163.8161 299.6365  1.00271291 27496"
      },
      "geometry": {
        "type": "Point",
        "coordinates": [
          -92.36822783340641,
          -0.3003455716616991
        ]
      }
    },
    {
      "type": "Feature",
      "properties": {
        "norad_id": 43689,
        "name": "METOP-C",
        "group": "weather",
        "lat": -14.58795007729885,
        "lon": -144.1008478071031,
        "alt_km": 825.8042284983767,
        "timestamp": "2025-12-06T07:31:39.887911+00:00",
        "meta_object_name": "METOP-C",
        "meta_object_id": "2018-087A",
        "meta_epoch": "2025-12-05T06:57:53.389728",
        "meta_mean_motion": 14.21507581,
        "meta_eccentricity": 0.0001638,
        "meta_inclination": 98.694,
        "meta_ra_of_asc_node": 37.1736,
        "meta_arg_of_pericenter": 54.7491,
        "meta_mean_anomaly": 305.384,
        "meta_ephemeris_type": 0,
        "meta_classification_type": "U",
        "meta_norad_cat_id": 43689,
        "meta_element_set_no": 999,
        "meta_rev_at_epoch": 36728,
        "meta_bstar": 0.00015581161,
        "meta_mean_motion_dot": 2.97e-06,
        "meta_mean_motion_ddot": 0,
        "tle_line1": "1 43689U 18087A   25339.29020127  .00000297  00000+0  15581-3 0  9999",
        "tle_line2": "2 43689  98.6940  37.1736 0001638  54.7491 305.3840 14.21507581367286"
      },
      "geometry": {
        "type": "Point",
        "coordinates": [
          -144.1008478071031,
          -14.58795007729885
        ]
      }
    }
  ]
}